NORAD_CAT_ID,OBJECT_NAME,OBJECT_TYPE,EPOCH,MEAN_MOTION,ECCENTRICITY,INCLINATION,RA_OF_ASC_NODE,ARG_OF_PERICENTER,MEAN_ANOMALY,BSTAR,MEAN_MOTION_DOT,MEAN_MOTION_DDOT,TLE_LINE0,TLE_LINE1,TLE_LINE2,SEMIMAJOR_AXIS,PERIOD,APOGEE,PERIGEE,DECAYED
56776.0,STARLINK-6274,PAYLOAD,2024-02-20 09:47:37,14.98330052,0.0002827,69.9996,51.3215,266.63,93.4536,-3.4143e-05,-5e-06,0.0,0 STARLINK-6274,1 56776U 23078K   24051.40807520 -.00000500  00000-0 -34143-4 0  9995,2 56776  69.9996  51.3215 0002827 266.6300  93.4536 14.98330052 41088,6950.193,96.107,574.023,570.093,0.0
56776.0,STARLINK-6274,PAYLOAD,2024-02-20 17:48:18,14.98300637,0.0002799,69.9997,50.4797,279.8418,80.2425,0.00051018,5.995e-05,0.0,0 STARLINK-6274,1 56776U 23078K   24051.74188336  .00005995  00000-0  51018-3 0  9999,2 56776  69.9997  50.4797 0002799 279.8418  80.2425 14.98300637 41399,6950.284,96.109,574.094,570.203,0.0
56776.0,STARLINK-6274,PAYLOAD,2024-02-21 03:25:06,14.98330501,0.0002961,69.9995,49.4697,268.291,91.791,2.6654e-05,2.25e-06,0.0,0 STARLINK-6274,1 56776U 23078K   24052.14243268  .00000225  00000-0  26654-4 0  9990,2 56776  69.9995  49.4697 0002961 268.2910  91.7910 14.98330501 41450,6950.191,96.107,574.114,569.998,0.0
56776.0,STARLINK-6274,PAYLOAD,2024-02-21 09:49:38,14.98333107,0.0002898,69.9995,48.7967,266.3009,93.7818,4.4253e-05,4.35e-06,0.0,0 STARLINK-6274,1 56776U 23078K   24052.40947020  .00000435  00000-0  44253-4 0  9994,2 56776  69.9995  48.7967 0002898 266.3009  93.7818 14.98333107 41239,6950.183,96.107,574.062,570.034,0.0
56776.0,STARLINK-6274,PAYLOAD,2024-02-22 03:27:07,14.98331026,0.0002785,69.9996,46.945,270.438,89.646,-2.6795e-05,-4.13e-06,0.0,0 STARLINK-6274,1 56776U 23078K   24053.14383332 -.00000413  00000-0 -26795-4 0  9995,2 56776  69.9996  46.9450 0002785 270.4380  89.6460 14.98331026 41606,6950.19,96.107,573.99,570.119,0.0
56776.0,STARLINK-6274,PAYLOAD,2024-02-22 09:51:39,14.98331188,0.0002696,70.0002,46.273,267.7532,92.3318,2.04e-05,1.5e-06,0.0,0 STARLINK-6274,1 56776U 23078K   24053.41087157  .00000150  00000-0  20400-4 0  9994,2 56776  70.0002  46.2730 0002696 267.7532  92.3318 14.98331188 41387,6950.189,96.107,573.928,570.18,0.0
56776.0,STARLINK-6274,PAYLOAD,2024-02-23 03:29:08,14.98330546,0.000284,70.0003,44.4212,270.9284,89.155,3.1713e-06,-5.5e-07,0.0,0 STARLINK-6274,1 56776U 23078K   24054.14523154 -.00000055  00000-0  31713-5 0  9992,2 56776  70.0003  44.4212 0002840 270.9284  89.1550 14.98330546 41754,6950.191,96.107,574.03,570.082,0.0
56776.0,STARLINK-6274,PAYLOAD,2024-02-23 08:17:32,14.98331305,0.0002695,70.0006,43.9169,263.5606,96.5246,-1.3363e-05,-2.52e-06,0.0,0 STARLINK-6274,1 56776U 23078K   24054.34551111 -.00000252  00000-0 -13363-4 0  9998,2 56776  70.0006  43.9169 0002695 263.5606  96.5246 14.98331305 41529,6950.189,96.107,573.927,570.181,0.0
56776.0,STARLINK-6274,PAYLOAD,2024-02-23 16:18:12,14.98344581,0.0002679,70.001,43.0734,275.0471,85.0382,-0.00028669,-3.513e-05,0.0,0 STARLINK-6274,1 56776U 23078K   24054.67930876 -.00003513  00000-0 -28669-3 0  9990,2 56776  70.0010  43.0734 0002679 275.0471  85.0382 14.98344581 41572,6950.148,96.106,573.875,570.151,0.0
56776.0,STARLINK-6274,PAYLOAD,2024-02-24 05:07:17,14.98327732,0.0002678,70.0003,41.7266,267.5187,92.5665,-2.204e-07,-9.6e-07,0.0,0 STARLINK-6274,1 56776U 23078K   24055.21339296 -.00000096  00000-0 -22040-6 0  9993,2 56776  70.0003  41.7266 0002678 267.5187  92.5665 14.98327732 41912,6950.2,96.107,573.926,570.204,0.0
56776.0,STARLINK-6274,PAYLOAD,2024-02-24 08:19:33,14.9832708,0.000282,70.0005,41.3906,269.109,90.9746,-9.6639e-06,-2.08e-06,0.0,0 STARLINK-6274,1 56776U 23078K   24055.34691384 -.00000208  00000-0 -96639-5 0  9995,2 56776  70.0005  41.3906 0002820 269.1090  90.9746 14.98327080 41672,6950.202,96.107,574.027,570.107,0.0
56776.0,STARLINK-6274,PAYLOAD,2024-02-24 22:44:45,14.9832837,0.0002767,70.0004,39.8754,266.6794,93.4049,3.2695e-06,-5.4e-07,0.0,0 STARLINK-6274,1 56776U 23078K   24055.94775252 -.00000054  00000-0  32695-5 0  9998,2 56776  70.0004  39.8754 0002767 266.6794  93.4049 14.98328370 41764,6950.198,96.107,573.986,570.14,0.0
56776.0,STARLINK-6274,PAYLOAD,2024-02-25 05:09:17,14.98332217,0.0002794,70.0013,39.2034,269.8586,90.2253,9.2725e-05,1.014e-05,0.0,0 STARLINK-6274,1 56776U 23078K   24056.21478723  .00001014  00000-0  92725-4 0  9997,2 56776  70.0013  39.2034 0002794 269.8586  90.2253 14.98332217 42064,6950.186,96.107,573.993,570.109,0.0
56776.0,STARLINK-6274,PAYLOAD,2024-02-25 08:21:33,14.98332899,0.0002741,70.001,38.8661,270.6247,89.4598,4.9714e-05,5e-06,0.0,0 STARLINK-6274,1 56776U 23078K   24056.34830817  .00000500  00000-0  49714-4 0  9996,2 56776  70.0010  38.8661 0002741 270.6247  89.4598 14.98332899 41829,6950.184,96.107,573.954,570.144,0.0
56776.0,STARLINK-6274,PAYLOAD,2024-02-25 16:22:14,14.98328711,0.0002676,70.0017,38.023,272.3226,87.7627,2.7425e-06,-6e-07,0.0,0 STARLINK-6274,1 56776U 23078K   24056.68211207 -.00000060  00000-0  27425-5 0  9997,2 56776  70.0017  38.0230 0002676 272.3226  87.7627 14.98328711 42130,6950.197,96.107,573.922,570.202,0.0
56776.0,STARLINK-6274,PAYLOAD,2024-02-25 22:46:46,14.98327728,0.000295,70.0005,37.3502,271.1055,88.9766,3.8627e-05,3.68e-06,0.0,0 STARLINK-6274,1 56776U 23078K   24056.94915077  .00000368  00000-0  38627-4 0  9997,2 56776  70.0005  37.3502 0002950 271.1055  88.9766 14.98327728 41912,6950.2,96.107,574.115,570.015,0.0
56776.0,STARLINK-6274,PAYLOAD,2024-02-26 08:23:34,14.98330723,0.0002909,70.0003,36.3402,269.2908,90.7918,5.3935e-05,5.51e-06,0.0,0 STARLINK-6274,1 56776U 23078K   24057.34970832  .00000551  00000-0  53935-4 0  9995,2 56776  70.0003  36.3402 0002909 269.2908  90.7918 14.98330723 41972,6950.191,96.107,574.077,570.034,0.0
56776.0,STARLINK-6274,PAYLOAD,2024-02-26 22:48:47,14.98329207,0.0002892,70.0008,34.827,269.4639,90.6188,6.0558e-06,-2.1e-07,0.0,0 STARLINK-6274,1 56776U 23078K   24057.95055034 -.00000021  00000-0  60558-5 0  9993,2 56776  70.0008  34.8270 0002892 269.4639  90.6188 14.98329207 42061,6950.195,96.107,574.07,570.05,0.0
56776.0,STARLINK-6274,PAYLOAD,2024-02-27 03:37:11,14.9833658,0.0002385,70.0018,34.3211,267.347,92.7416,1.1112e-05,4e-07,0.0,0 STARLINK-6274,1 56776U 23078K   24058.15082566  .00000040  00000-0  11112-4 0  9997,2 56776  70.0018  34.3211 0002385 267.3470  92.7416 14.98336580 42350,6950.173,96.107,573.695,570.38,0.0
56776.0,STARLINK-6274,PAYLOAD,2024-02-27 08:25:35,14.98333741,0.0002324,70.0024,33.8167,263.7324,96.3571,0.00015361,1.741e-05,0.0,0 STARLINK-6274,1 56776U 23078K   24058.35110291  .00001741  00000-0  15361-3 0  9994,2 56776  70.0024  33.8167 0002324 263.7324  96.3571 14.98333741 42125,6950.181,96.107,573.662,570.431,0.0
56776.0,STARLINK-6274,PAYLOAD,2024-02-27 22:50:48,14.98337229,0.0001879,70.003,32.3031,265.0518,95.0427,-5.0594e-05,-6.96e-06,0.0,0 STARLINK-6274,1 56776U 23078K   24058.95194484 -.00000696  00000-0 -50594-4 0  9994,2 56776  70.0030  32.3031 0001879 265.0518  95.0427 14.98337229 42211,6950.171,96.107,573.341,570.73,0.0
56776.0,STARLINK-6274,PAYLOAD,2024-02-28 03:39:12,14.98329654,0.0002556,70.0013,31.7977,259.1345,100.9527,-7.7638e-05,-1.019e-05,0.0,0 STARLINK-6274,1 56776U 23078K   24059.15222819 -.00001019  00000-0 -77638-4 0  9999,2 56776  70.0013  31.7977 0002556 259.1345 100.9527 14.98329654 42501,6950.194,96.107,573.835,570.282,0.0
56776.0,STARLINK-6274,PAYLOAD,2024-02-28 08:27:36,14.98338352,0.0002256,70.0012,31.2929,253.5747,106.5164,-0.00026342,-3.235e-05,0.0,0 STARLINK-6274,1 56776U 23078K   24059.35250749 -.00003235  00000-0 -26342-3 0  9991,2 56776  70.0012  31.2929 0002256 253.5747 106.5164 14.98338352 42271,6950.167,96.106,573.6,570.464,0.0
56776.0,STARLINK-6274,PAYLOAD,2024-02-28 22:52:49,14.9832996,0.000279,70.0021,29.7784,257.661,102.4237,-0.00012573,-1.593e-05,0.0,0 STARLINK-6274,1 56776U 23078K   24059.95335106 -.00001593  00000-0 -12573-3 0  9994,2 56776  70.0021  29.7784 0002790 257.6610 102.4237 14.98329960 42360,6950.193,96.107,573.997,570.119,0.0
56776.0,STARLINK-6274,PAYLOAD,2024-02-29 03:41:13,14.98332287,0.0002638,70.0015,29.2719,250.7559,109.3315,-9.8081e-05,-1.263e-05,0.0,0 STARLINK-6274,1 56776U 23078K   24060.15362807 -.00001263  00000-0 -98081-4 0  9999,2 56776  70.0015  29.2719 0002638 250.7559 109.3315 14.98332287 42654,6950.186,96.107,573.884,570.217,0.0
56776.0,STARLINK-6274,PAYLOAD,2024-02-29 08:29:37,14.98328672,0.0002523,70.0016,28.7659,259.5883,100.4992,-0.0001151,-1.466e-05,0.0,0 STARLINK-6274,1 56776U 23078K   24060.35391144 -.00001466  00000-0 -11510-3 0  9993,2 56776  70.0016  28.7659 0002523 259.5883 100.4992 14.98328672 42423,6950.197,96.107,573.816,570.308,0.0
56776.0,STARLINK-6274,PAYLOAD,2024-02-29 22:54:50,14.98329655,0.0002738,70.0014,27.2505,257.5682,102.5171,-7.6175e-05,-1.002e-05,0.0,0 STARLINK-6274,1 56776U 23078K   24060.95475003 -.00001002  00000-0 -76175-4 0  9991,2 56776  70.0014  27.2505 0002738 257.5682 102.5171 14.98329655 42512,6950.194,96.107,573.962,570.156,0.0
56776.0,STARLINK-6274,PAYLOAD,2024-03-01 03:43:14,14.98325582,0.0002567,70.0007,26.7466,251.7501,108.3379,1.7864e-05,1.2e-06,0.0,0 STARLINK-6274,1 56776U 23078K   24061.15503009  .00000120  00000-0  17864-4 0  9990,2 56776  70.0007  26.7466 0002567 251.7501 108.3379 14.98325582 42801,6950.207,96.107,573.856,570.287,0.0
56776.0,STARLINK-6274,PAYLOAD,2024-03-01 06:55:30,14.98329314,0.0002668,70.0011,26.4098,257.5056,102.5804,-1.2266e-05,-2.39e-06,0.0,0 STARLINK-6274,1 56776U 23078K   24061.28854887 -.00000239  00000-0 -12266-4 0  9991,2 56776  70.0011  26.4098 0002668 257.5056 102.5804 14.98329314 42564,6950.195,96.107,573.914,570.206,0.0
56776.0,STARLINK-6274,PAYLOAD,2024-03-01 14:56:10,14.98334499,0.0002881,70.0009,25.5682,270.3914,89.6915,-3.6736e-05,-5.31e-06,0.0,0 STARLINK-6274,1 56776U 23078K   24061.62234639 -.00000531  00000-0 -36736-4 0  9999,2 56776  70.0009  25.5682 0002881 270.3914  89.6915 14.98334499 42617,6950.179,96.107,574.046,570.042,0.0
